[{"OBJECT_NAME":"YAOGAN-30 07C","OBJECT_ID":"2020-021C","EPOCH":"2026-03-09T23:27:46.361088","MEAN_MOTION":15.02093061,"ECCENTRICITY":0.00023968,"INCLINATION":34.9952,"RA_OF_ASC_NODE":93.0026,"ARG_OF_PERICENTER":261.0656,"MEAN_ANOMALY":98.9781,"EPHEMERIS_TYPE":0,"CLASSIFICATION_TYPE":"U","NORAD_CAT_ID":45462,"ELEMENT_SET_NO":999,"REV_AT_EPOCH":32548,"BSTAR":0.00030590838,"MEAN_MOTION_DOT":4.073e-5,"MEAN_MOTION_DDOT":0},{"OBJECT_NAME":"STARLINK-5026","OBJECT_ID":"2023-094AU","EPOCH":"2026-03-09T07:13:20.190432","MEAN_MOTION":15.02539997,"ECCENTRICITY":9.758e-5,"INCLINATION":43.0071,"RA_OF_ASC_NODE":19.2457,"ARG_OF_PERICENTER":282.5382,"MEAN_ANOMALY":77.5351,"EPHEMERIS_TYPE":0,"CLASSIFICATION_TYPE":"U","NORAD_CAT_ID":57260,"ELEMENT_SET_NO":999,"REV_AT_EPOCH":14785,"BSTAR":8.3707239e-5,"MEAN_MOTION_DOT":9.27e-6,"MEAN_MOTION_DDOT":0}]
